start=new Date('2021-10-04T00:00:00.000Z').valueOf();
sats=[{"CLASSIFICATION_TYPE":"U","TIME_SYSTEM":"UTC","INCLINATION":"53.0549","MEAN_MOTION_DDOT":"0.0000000000000","BSTAR":"-0.00000351350000","PERIAPSIS":"546.040","MEAN_ELEMENT_THEORY":"SGP4","MEAN_MOTION_DOT":"-0.00000334","LAUNCH_DATE":"2020-04-22","TLE_LINE2":"2 45585  53.0549 139.3108 0001749  92.0623 268.0567 15.06387719 81665","DECAY_DATE":null,"RA_OF_ASC_NODE":"139.3108","APOAPSIS":"548.462","ARG_OF_PERICENTER":"92.0623","GP_ID":"186140691","OBJECT_ID":"2020-025BG","EPOCH":"2021-10-03T20:49:44.450112","REF_FRAME":"TEME","ELEMENT_SET_NO":"999","TLE_LINE1":"1 45585U 20025BG  21276.86787558 -.00000334  00000-0 -35135-5 0  9992","FILE":"3143202","MEAN_MOTION":"15.06387719","SEMIMAJOR_AXIS":"6925.386","MEAN_ANOMALY":"268.0567","SITE":"AFETR","CENTER_NAME":"EARTH","PERIOD":"95.593","OBJECT_TYPE":"PAYLOAD","NORAD_CAT_ID":"45585","ECCENTRICITY":"0.00017490","OBJECT_NAME":"STARLINK-1345","EPHEMERIS_TYPE":"0","COUNTRY_CODE":"US","REV_AT_EPOCH":"8166","RCS_SIZE":"LARGE"},{"CLASSIFICATION_TYPE":"U","MEAN_MOTION_DDOT":"0.0000000000000","BSTAR":"0.00002892800000","INCLINATION":"53.0546","TIME_SYSTEM":"UTC","MEAN_ELEMENT_THEORY":"SGP4","PERIAPSIS":"545.836","TLE_LINE2":"2 45586  53.0546 138.9577 0002056  91.2333 268.8892 15.06384846 81666","LAUNCH_DATE":"2020-04-22","MEAN_MOTION_DOT":"0.00000149","DECAY_DATE":null,"ARG_OF_PERICENTER":"91.2333","APOAPSIS":"548.684","RA_OF_ASC_NODE":"138.9577","GP_ID":"186139440","EPOCH":"2021-10-03T22:35:53.855520","OBJECT_ID":"2020-025BH","ELEMENT_SET_NO":"999","REF_FRAME":"TEME","SEMIMAJOR_AXIS":"6925.395","MEAN_MOTION":"15.06384846","TLE_LINE1":"1 45586U 20025BH  21276.94159555  .00000149  00000-0  28928-4 0  9995","FILE":"3143202","MEAN_ANOMALY":"268.8892","NORAD_CAT_ID":"45586","OBJECT_TYPE":"PAYLOAD","PERIOD":"95.593","CENTER_NAME":"EARTH","SITE":"AFETR","ECCENTRICITY":"0.00020560","COUNTRY_CODE":"US","EPHEMERIS_TYPE":"0","OBJECT_NAME":"STARLINK-1347","RCS_SIZE":"LARGE","REV_AT_EPOCH":"8166"},{"MEAN_MOTION_DOT":"-0.00002233","LAUNCH_DATE":"2020-04-22","TLE_LINE2":"2 45587  53.0548 139.1168 0001921  80.3355 279.7851 15.06388408 81676","PERIAPSIS":"545.919","MEAN_ELEMENT_THEORY":"SGP4","TIME_SYSTEM":"UTC","INCLINATION":"53.0548","BSTAR":"-0.00013108000000","MEAN_MOTION_DDOT":"0.0000000000000","CLASSIFICATION_TYPE":"U","GP_ID":"186139690","APOAPSIS":"548.579","RA_OF_ASC_NODE":"139.1168","ARG_OF_PERICENTER":"80.3355","DECAY_DATE":null,"MEAN_ANOMALY":"279.7851","FILE":"3143202","TLE_LINE1":"1 45587U 20025BJ  21276.91210080 -.00002233  00000-0 -13108-3 0  9995","MEAN_MOTION":"15.06388408","SEMIMAJOR_AXIS":"6925.384","REF_FRAME":"TEME","ELEMENT_SET_NO":"999","OBJECT_ID":"2020-025BJ","EPOCH":"2021-10-03T21:53:25.509120","REV_AT_EPOCH":"8167","RCS_SIZE":"LARGE","OBJECT_NAME":"STARLINK-1349","COUNTRY_CODE":"US","EPHEMERIS_TYPE":"0","ECCENTRICITY":"0.00019210","SITE":"AFETR","CENTER_NAME":"EARTH","PERIOD":"95.593","OBJECT_TYPE":"PAYLOAD","NORAD_CAT_ID":"45587"},{"PERIAPSIS":"545.562","MEAN_ELEMENT_THEORY":"SGP4","MEAN_MOTION_DOT":"0.00000259","TLE_LINE2":"2 45588  53.0540 139.2126 0002424  72.4609 287.6645 15.06391136 81667","LAUNCH_DATE":"2020-04-22","CLASSIFICATION_TYPE":"U","TIME_SYSTEM":"UTC","INCLINATION":"53.0540","MEAN_MOTION_DDOT":"0.0000000000000","BSTAR":"0.00003632900000","APOAPSIS":"548.919","RA_OF_ASC_NODE":"139.2126","ARG_OF_PERICENTER":"72.4609","GP_ID":"186140927","DECAY_DATE":null,"TLE_LINE1":"1 45588U 20025BK  21276.88999019  .00000259  00000-0  36329-4 0  9993","FILE":"3143202","MEAN_MOTION":"15.06391136","SEMIMAJOR_AXIS":"6925.376","MEAN_ANOMALY":"287.6645","OBJECT_ID":"2020-025BK","EPOCH":"2021-10-03T21:21:35.152416","REF_FRAME":"TEME","ELEMENT_SET_NO":"999","OBJECT_NAME":"STARLINK-1360","COUNTRY_CODE":"US","EPHEMERIS_TYPE":"0","REV_AT_EPOCH":"8166","RCS_SIZE":"LARGE","CENTER_NAME":"EARTH","SITE":"AFETR","PERIOD":"95.593","OBJECT_TYPE":"PAYLOAD","NORAD_CAT_ID":"45588","ECCENTRICITY":"0.00024240"},{"MEAN_ANOMALY":"283.0776","SEMIMAJOR_AXIS":"6925.359","MEAN_MOTION":"15.06396451","FILE":"3143202","TLE_LINE1":"1 45589U 20025BL  21276.88630680 -.00002243  00000-0 -13174-3 0  9999","ELEMENT_SET_NO":"999","REF_FRAME":"TEME","EPOCH":"2021-10-03T21:16:16.907520","OBJECT_ID":"2020-025BL","RCS_SIZE":"LARGE","REV_AT_EPOCH":"8166","EPHEMERIS_TYPE":"0","COUNTRY_CODE":"US","OBJECT_NAME":"STARLINK-1364","ECCENTRICITY":"0.00015310","NORAD_CAT_ID":"45589","OBJECT_TYPE":"PAYLOAD","PERIOD":"95.592","CENTER_NAME":"EARTH","SITE":"AFETR","LAUNCH_DATE":"2020-04-22","TLE_LINE2":"2 45589  53.0536 139.2259 0001531  77.0383 283.0776 15.06396451 81668","MEAN_MOTION_DOT":"-0.00002243","MEAN_ELEMENT_THEORY":"SGP4","PERIAPSIS":"546.164","BSTAR":"-0.00013174000000","MEAN_MOTION_DDOT":"0.0000000000000","INCLINATION":"53.0536","TIME_SYSTEM":"UTC","CLASSIFICATION_TYPE":"U","GP_ID":"186141178","ARG_OF_PERICENTER":"77.0383","RA_OF_ASC_NODE":"139.2259","APOAPSIS":"548.285","DECAY_DATE":null},{"CENTER_NAME":"EARTH","SITE":"AFETR","PERIOD":"95.593","OBJECT_TYPE":"PAYLOAD","NORAD_CAT_ID":"45590","ECCENTRICITY":"0.00017560","OBJECT_NAME":"STARLINK-1365","EPHEMERIS_TYPE":"0","COUNTRY_CODE":"US","REV_AT_EPOCH":"8126","RCS_SIZE":"LARGE","OBJECT_ID":"2020-025BM","EPOCH":"2021-10-03T21:38:49.966944","REF_FRAME":"TEME","ELEMENT_SET_NO":"999","FILE":"3143202","TLE_LINE1":"1 45590U 20025BM  21276.90196721  .00000627  00000-0  61012-4 0  9994","MEAN_MOTION":"15.06387890","SEMIMAJOR_AXIS":"6925.386","MEAN_ANOMALY":"284.0785","DECAY_DATE":null,"APOAPSIS":"548.467","RA_OF_ASC_NODE":"169.1552","ARG_OF_PERICENTER":"76.0399","GP_ID":"186139927","CLASSIFICATION_TYPE":"U","TIME_SYSTEM":"UTC","INCLINATION":"53.0549","MEAN_MOTION_DDOT":"0.0000000000000","BSTAR":"0.00006101200000","PERIAPSIS":"546.035","MEAN_ELEMENT_THEORY":"SGP4","MEAN_MOTION_DOT":"0.00000627","LAUNCH_DATE":"2020-04-22","TLE_LINE2":"2 45590  53.0549 169.1552 0001756  76.0399 284.0785 15.06387890 81261"},{"OBJECT_TYPE":"PAYLOAD","NORAD_CAT_ID":"45658","SITE":"AFETR","CENTER_NAME":"EARTH","PERIOD":"95.593","ECCENTRICITY":"0.00018390","OBJECT_NAME":"STARLINK-1441","COUNTRY_CODE":"US","EPHEMERIS_TYPE":"0","RCS_SIZE":"LARGE","REV_AT_EPOCH":"7489","OBJECT_ID":"2020-035B","EPOCH":"2021-10-03T21:01:40.509984","ELEMENT_SET_NO":"999","REF_FRAME":"TEME","MEAN_MOTION":"15.06393759","SEMIMAJOR_AXIS":"6925.368","FILE":"3143202","TLE_LINE1":"1 45658U 20035B   21276.87616331 -.00000254  00000-0  18880-5 0  9993","MEAN_ANOMALY":"283.7761","DECAY_DATE":null,"ARG_OF_PERICENTER":"76.3433","APOAPSIS":"548.506","RA_OF_ASC_NODE":"129.2716","GP_ID":"186140183","CLASSIFICATION_TYPE":"U","BSTAR":"0.00000188800000","MEAN_MOTION_DDOT":"0.0000000000000","TIME_SYSTEM":"UTC","INCLINATION":"53.0531","MEAN_ELEMENT_THEORY":"SGP4","PERIAPSIS":"545.959","MEAN_MOTION_DOT":"-0.00000254","TLE_LINE2":"2 45658  53.0531 129.2716 0001839  76.3433 283.7761 15.06393759 74892","LAUNCH_DATE":"2020-06-04"},{"OBJECT_ID":"2020-035C","EPOCH":"2021-10-03T21:12:17.438688","ELEMENT_SET_NO":"999","REF_FRAME":"TEME","MEAN_MOTION":"15.06407874","SEMIMAJOR_AXIS":"6925.324","FILE":"3143202","TLE_LINE1":"1 45659U 20035C   21276.88353517 -.00001309  00000-0 -68938-4 0  9990","MEAN_ANOMALY":"272.8994","OBJECT_TYPE":"PAYLOAD","NORAD_CAT_ID":"45659","CENTER_NAME":"EARTH","SITE":"AFETR","PERIOD":"95.592","ECCENTRICITY":"0.00017010","OBJECT_NAME":"STARLINK-1442","EPHEMERIS_TYPE":"0","COUNTRY_CODE":"US","RCS_SIZE":"LARGE","REV_AT_EPOCH":"7488","CLASSIFICATION_TYPE":"U","MEAN_MOTION_DDOT":"0.0000000000000","BSTAR":"-0.00006893800000","TIME_SYSTEM":"UTC","INCLINATION":"53.0538","MEAN_ELEMENT_THEORY":"SGP4","PERIAPSIS":"546.011","MEAN_MOTION_DOT":"-0.00001309","LAUNCH_DATE":"2020-06-04","TLE_LINE2":"2 45659  53.0538 129.2343 0001701  87.2189 272.8994 15.06407874 74883","DECAY_DATE":null,"ARG_OF_PERICENTER":"87.2189","RA_OF_ASC_NODE":"129.2343","APOAPSIS":"548.367","GP_ID":"186140447"},{"CLASSIFICATION_TYPE":"U","BSTAR":"-0.00000807710000","MEAN_MOTION_DDOT":"0.0000000000000","TIME_SYSTEM":"UTC","INCLINATION":"53.0554","MEAN_ELEMENT_THEORY":"SGP4","PERIAPSIS":"545.824","MEAN_MOTION_DOT":"-0.00000402","LAUNCH_DATE":"2020-06-04","TLE_LINE2":"2 45660  53.0554 129.2283 0002022  85.4771 274.6448 15.06396515 74894","DECAY_DATE":null,"ARG_OF_PERICENTER":"85.4771","APOAPSIS":"548.625","RA_OF_ASC_NODE":"129.2283","GP_ID":"186140698","OBJECT_ID":"2020-035D","EPOCH":"2021-10-03T21:17:35.545344","ELEMENT_SET_NO":"999","REF_FRAME":"TEME","MEAN_MOTION":"15.06396515","SEMIMAJOR_AXIS":"6925.359","TLE_LINE1":"1 45660U 20035D   21276.88721696 -.00000402  00000-0 -80771-5 0  9992","FILE":"3143202","MEAN_ANOMALY":"274.6448","OBJECT_TYPE":"PAYLOAD","NORAD_CAT_ID":"45660","SITE":"AFETR","CENTER_NAME":"EARTH","PERIOD":"95.592","ECCENTRICITY":"0.00020220","OBJECT_NAME":"STARLINK-1443","EPHEMERIS_TYPE":"0","COUNTRY_CODE":"US","RCS_SIZE":"LARGE","REV_AT_EPOCH":"7489"},{"OBJECT_ID":"2020-035E","EPOCH":"2021-10-03T21:44:07.843776","ELEMENT_SET_NO":"999","REF_FRAME":"TEME","MEAN_MOTION":"15.06397493","SEMIMAJOR_AXIS":"6925.356","FILE":"3143202","TLE_LINE1":"1 45661U 20035E   21276.90564634 -.00000251  00000-0  20867-5 0  9994","MEAN_ANOMALY":"289.5062","OBJECT_TYPE":"PAYLOAD","NORAD_CAT_ID":"45661","SITE":"AFETR","CENTER_NAME":"EARTH","PERIOD":"95.592","ECCENTRICITY":"0.00019160","OBJECT_NAME":"STARLINK-1444","COUNTRY_CODE":"US","EPHEMERIS_TYPE":"0","RCS_SIZE":"LARGE","REV_AT_EPOCH":"7489","CLASSIFICATION_TYPE":"U","BSTAR":"0.00000208670000","MEAN_MOTION_DDOT":"0.0000000000000","TIME_SYSTEM":"UTC","INCLINATION":"53.0544","MEAN_ELEMENT_THEORY":"SGP4","PERIAPSIS":"545.894","MEAN_MOTION_DOT":"-0.00000251","TLE_LINE2":"2 45661  53.0544 129.1441 0001916  70.6134 289.5062 15.06397493 74892","LAUNCH_DATE":"2020-06-04","DECAY_DATE":null,"ARG_OF_PERICENTER":"70.6134","RA_OF_ASC_NODE":"129.1441","APOAPSIS":"548.548","GP_ID":"186139447"}];
